IRIDIUM 150             
1 43257U 18030J   25044.69874327 -.00000174  00000+0 -69265-4 0  9999
2 43257  86.4004 134.7013 0002196  91.9539 268.1909 14.34217201360142
IRIDIUM 143             
1 43258U 18030K   25044.54017326  .00000568  00000+0  19581-3 0  9992
2 43258  86.4008 134.8413 0002513  88.9268 271.2216 14.34218165360089
IRIDIUM 161             
1 43478U 18047C   25044.38657780  .00000628  00000+0  18083-3 0  9993
2 43478  86.4479 292.7298 0002026  87.3841 272.7592 14.43284576354635
IRIDIUM 152             
1 43479U 18047D   25045.21058173  .00000063  00000+0  15576-4 0  9996
2 43479  86.3952 292.2448 0002051  87.7050 272.4380 14.34217582352551
IRIDIUM 147             
1 43480U 18047E   25044.24016440  .00000060  00000+0  14355-4 0  9992
2 43480  86.3955 292.6471 0001838  85.6951 274.4454 14.34216894352408
IRIDIUM 110             
1 43481U 18047F   25045.22326578 -.00000313  00000+0 -11880-3 0  9990
2 43481  86.3953 292.3149 0001767  97.5044 262.6353 14.34214491352534
IRIDIUM 162             
1 43482U 18047G   25045.14297204  .00000640  00000+0  18440-3 0  9995
2 43482  86.4476 292.3103 0002126  92.7318 267.4126 14.43277749354737
IRIDIUM 160             
1 43569U 18061A   25044.95979573  .00000373  00000+0  12603-3 0  9999
2 43569  86.3920 260.7751 0001907  93.0652 267.0762 14.34218110343394
